[{"OBJECT_NAME":"STARLINK-31685","OBJECT_ID":"2024-076Q","EPOCH":"2026-03-09T05:03:49.958496","MEAN_MOTION":15.27574062,"ECCENTRICITY":1.913e-5,"INCLINATION":43.0015,"RA_OF_ASC_NODE":11.3381,"ARG_OF_PERICENTER":282.1997,"MEAN_ANOMALY":77.8834,"EPHEMERIS_TYPE":0,"CLASSIFICATION_TYPE":"U","NORAD_CAT_ID":59578,"ELEMENT_SET_NO":999,"REV_AT_EPOCH":10643,"BSTAR":-6.1183873e-5,"MEAN_MOTION_DOT":-1.944e-5,"MEAN_MOTION_DDOT":0},{"OBJECT_NAME":"YAOGAN-43 01F","OBJECT_ID":"2024-148F","EPOCH":"2026-03-10T00:23:08.877408","MEAN_MOTION":15.29824616,"ECCENTRICITY":0.00057048,"INCLINATION":34.9925,"RA_OF_ASC_NODE":59.8891,"ARG_OF_PERICENTER":18.4862,"MEAN_ANOMALY":341.6062,"EPHEMERIS_TYPE":0,"CLASSIFICATION_TYPE":"U","NORAD_CAT_ID":60463,"ELEMENT_SET_NO":999,"REV_AT_EPOCH":8707,"BSTAR":0.00058388219,"MEAN_MOTION_DOT":0.00017308,"MEAN_MOTION_DDOT":0}]
